{
 "type": "FeatureCollection",
 "features": [
  {
   "type": "Feature",
   "properties": {
    "id": "HYUGA",
    "name": "Hyuga-nada",
    "trench": "Nankai",
    "mech": "interplate"
   },
   "geometry": {
    "type": "Polygon",
    "coordinates": [
     [
      [
       131.2,
       31.3
      ],
      [
       132.6,
       31.3
      ],
      [
       132.6,
       33.0
      ],
      [
       131.2,
       33.0
      ],
      [
       131.2,
       31.3
      ]
     ]
    ]
   }
  },
  {
   "type": "Feature",
   "properties": {
    "id": "NK-A",
    "name": "Nankai A (Tosa Bay)",
    "trench": "Nankai",
    "mech": "interplate"
   },
   "geometry": {
    "type": "Polygon",
    "coordinates": [
     [
      [
       132.6,
       31.8
      ],
      [
       134.4,
       32.4
      ],
      [
       134.0,
       33.7
      ],
      [
       132.5,
       33.1
      ],
      [
       132.6,
       31.8
      ]
     ]
    ]
   }
  },
  {
   "type": "Feature",
   "properties": {
    "id": "NK-B",
    "name": "Nankai B (Kii Channel)",
    "trench": "Nankai",
    "mech": "interplate"
   },
   "geometry": {
    "type": "Polygon",
    "coordinates": [
     [
      [
       134.4,
       32.4
      ],
      [
       135.8,
       32.6
      ],
      [
       135.6,
       34.0
      ],
      [
       134.0,
       33.7
      ],
      [
       134.4,
       32.4
      ]
     ]
    ]
   }
  },
  {
   "type": "Feature",
   "properties": {
    "id": "NK-C",
    "name": "Tonankai C (Kumano)",
    "trench": "Nankai",
    "mech": "interplate"
   },
   "geometry": {
    "type": "Polygon",
    "coordinates": [
     [
      [
       135.8,
       32.6
      ],
      [
       137.2,
       33.0
      ],
      [
       137.0,
       34.4
      ],
      [
       135.6,
       34.0
      ],
      [
       135.8,
       32.6
      ]
     ]
    ]
   }
  },
  {
   "type": "Feature",
   "properties": {
    "id": "NK-D",
    "name": "Tonankai D (Enshu)",
    "trench": "Nankai",
    "mech": "interplate"
   },
   "geometry": {
    "type": "Polygon",
    "coordinates": [
     [
      [
       137.2,
       33.0
      ],
      [
       138.4,
       33.4
      ],
      [
       138.2,
       34.7
      ],
      [
       137.0,
       34.4
      ],
      [
       137.2,
       33.0
      ]
     ]
    ]
   }
  },
  {
   "type": "Feature",
   "properties": {
    "id": "NK-E",
    "name": "Tokai E (Suruga Bay)",
    "trench": "Nankai",
    "mech": "interplate"
   },
   "geometry": {
    "type": "Polygon",
    "coordinates": [
     [
      [
       138.2,
       34.0
      ],
      [
       138.9,
       34.0
      ],
      [
       138.9,
       35.1
      ],
      [
       138.2,
       35.1
      ],
      [
       138.2,
       34.0
      ]
     ]
    ]
   }
  },
  {
   "type": "Feature",
   "properties": {
    "id": "SAGAMI",
    "name": "Sagami Trough",
    "trench": "Sagami",
    "mech": "interplate"
   },
   "geometry": {
    "type": "Polygon",
    "coordinates": [
     [
      [
       139.0,
       34.6
      ],
      [
       140.6,
       34.6
      ],
      [
       140.6,
       35.6
      ],
      [
       139.0,
       35.6
      ],
      [
       139.0,
       34.6
      ]
     ]
    ]
   }
  },
  {
   "type": "Feature",
   "properties": {
    "id": "JT-S",
    "name": "Japan Trench south (Fukushima/Ibaraki)",
    "trench": "Japan",
    "mech": "interplate"
   },
   "geometry": {
    "type": "Polygon",
    "coordinates": [
     [
      [
       140.5,
       35.6
      ],
      [
       142.5,
       35.6
      ],
      [
       142.5,
       37.5
      ],
      [
       140.5,
       37.5
      ],
      [
       140.5,
       35.6
      ]
     ]
    ]
   }
  },
  {
   "type": "Feature",
   "properties": {
    "id": "JT-M",
    "name": "Japan Trench middle (Miyagi)",
    "trench": "Japan",
    "mech": "interplate"
   },
   "geometry": {
    "type": "Polygon",
    "coordinates": [
     [
      [
       140.8,
       37.5
      ],
      [
       143.5,
       37.5
      ],
      [
       143.5,
       39.0
      ],
      [
       140.8,
       39.0
      ],
      [
       140.8,
       37.5
      ]
     ]
    ]
   }
  },
  {
   "type": "Feature",
   "properties": {
    "id": "JT-N",
    "name": "Japan Trench north (Sanriku)",
    "trench": "Japan",
    "mech": "interplate"
   },
   "geometry": {
    "type": "Polygon",
    "coordinates": [
     [
      [
       141.5,
       39.0
      ],
      [
       145.0,
       39.0
      ],
      [
       145.0,
       41.3
      ],
      [
       141.5,
       41.3
      ],
      [
       141.5,
       39.0
      ]
     ]
    ]
   }
  },
  {
   "type": "Feature",
   "properties": {
    "id": "KT-TOK",
    "name": "Tokachi-oki",
    "trench": "Kuril",
    "mech": "interplate"
   },
   "geometry": {
    "type": "Polygon",
    "coordinates": [
     [
      [
       142.5,
       41.3
      ],
      [
       144.8,
       41.3
      ],
      [
       144.8,
       42.8
      ],
      [
       142.5,
       42.8
      ],
      [
       142.5,
       41.3
      ]
     ]
    ]
   }
  },
  {
   "type": "Feature",
   "properties": {
    "id": "KT-NEM",
    "name": "Nemuro-oki",
    "trench": "Kuril",
    "mech": "interplate"
   },
   "geometry": {
    "type": "Polygon",
    "coordinates": [
     [
      [
       144.8,
       41.8
      ],
      [
       146.5,
       41.8
      ],
      [
       146.5,
       43.5
      ],
      [
       144.8,
       43.5
      ],
      [
       144.8,
       41.8
      ]
     ]
    ]
   }
  },
  {
   "type": "Feature",
   "properties": {
    "id": "KT-SHI",
    "name": "Shikotan-oki",
    "trench": "Kuril",
    "mech": "interplate"
   },
   "geometry": {
    "type": "Polygon",
    "coordinates": [
     [
      [
       146.5,
       42.5
      ],
      [
       148.0,
       42.5
      ],
      [
       148.0,
       44.2
      ],
      [
       146.5,
       44.2
      ],
      [
       146.5,
       42.5
      ]
     ]
    ]
   }
  },
  {
   "type": "Feature",
   "properties": {
    "id": "KT-ETO",
    "name": "Etorofu-oki",
    "trench": "Kuril",
    "mech": "interplate"
   },
   "geometry": {
    "type": "Polygon",
    "coordinates": [
     [
      [
       148.0,
       43.5
      ],
      [
       150.0,
       43.5
      ],
      [
       150.0,
       45.5
      ],
      [
       148.0,
       45.5
      ],
      [
       148.0,
       43.5
      ]
     ]
    ]
   }
  },
  {
   "type": "Feature",
   "properties": {
    "id": "HIDAKA",
    "name": "Hidaka collision zone",
    "trench": "Hokkaido",
    "mech": "crustal"
   },
   "geometry": {
    "type": "Polygon",
    "coordinates": [
     [
      [
       142.0,
       41.8
      ],
      [
       143.4,
       41.8
      ],
      [
       143.4,
       43.2
      ],
      [
       142.0,
       43.2
      ],
      [
       142.0,
       41.8
      ]
     ]
    ]
   }
  },
  {
   "type": "Feature",
   "properties": {
    "id": "ISTL",
    "name": "Itoigawa-Shizuoka Tectonic Line",
    "trench": "Inland",
    "mech": "crustal"
   },
   "geometry": {
    "type": "Polygon",
    "coordinates": [
     [
      [
       137.6,
       35.2
      ],
      [
       138.4,
       35.2
      ],
      [
       138.4,
       37.0
      ],
      [
       137.6,
       37.0
      ],
      [
       137.6,
       35.2
      ]
     ]
    ]
   }
  },
  {
   "type": "Feature",
   "properties": {
    "id": "MTL-SHK",
    "name": "Median Tectonic Line (Shikoku)",
    "trench": "Inland",
    "mech": "crustal"
   },
   "geometry": {
    "type": "Polygon",
    "coordinates": [
     [
      [
       132.7,
       33.6
      ],
      [
       134.6,
       33.6
      ],
      [
       134.6,
       34.3
      ],
      [
       132.7,
       34.3
      ],
      [
       132.7,
       33.6
      ]
     ]
    ]
   }
  },
  {
   "type": "Feature",
   "properties": {
    "id": "NOBI",
    "name": "Nobi / Neodani",
    "trench": "Inland",
    "mech": "crustal"
   },
   "geometry": {
    "type": "Polygon",
    "coordinates": [
     [
      [
       136.0,
       35.2
      ],
      [
       137.0,
       35.2
      ],
      [
       137.0,
       36.0
      ],
      [
       136.0,
       36.0
      ],
      [
       136.0,
       35.2
      ]
     ]
    ]
   }
  },
  {
   "type": "Feature",
   "properties": {
    "id": "NIIGATA",
    "name": "Niigata-Shinano (Echigo/Zenkoji)",
    "trench": "Inland",
    "mech": "crustal"
   },
   "geometry": {
    "type": "Polygon",
    "coordinates": [
     [
      [
       138.0,
       36.5
      ],
      [
       139.6,
       36.5
      ],
      [
       139.6,
       37.9
      ],
      [
       138.0,
       37.9
      ],
      [
       138.0,
       36.5
      ]
     ]
    ]
   }
  },
  {
   "type": "Feature",
   "properties": {
    "id": "NOTO",
    "name": "Noto Peninsula",
    "trench": "Inland",
    "mech": "crustal"
   },
   "geometry": {
    "type": "Polygon",
    "coordinates": [
     [
      [
       136.5,
       36.9
      ],
      [
       137.8,
       36.9
      ],
      [
       137.8,
       37.8
      ],
      [
       136.5,
       37.8
      ],
      [
       136.5,
       36.9
      ]
     ]
    ]
   }
  },
  {
   "type": "Feature",
   "properties": {
    "id": "SANIN",
    "name": "San-in coast (Tango/Tottori)",
    "trench": "Inland",
    "mech": "crustal"
   },
   "geometry": {
    "type": "Polygon",
    "coordinates": [
     [
      [
       133.0,
       35.1
      ],
      [
       135.5,
       35.1
      ],
      [
       135.5,
       35.9
      ],
      [
       133.0,
       35.9
      ],
      [
       133.0,
       35.1
      ]
     ]
    ]
   }
  },
  {
   "type": "Feature",
   "properties": {
    "id": "ROKKO",
    "name": "Rokko-Awaji (Kobe)",
    "trench": "Inland",
    "mech": "crustal"
   },
   "geometry": {
    "type": "Polygon",
    "coordinates": [
     [
      [
       134.7,
       34.2
      ],
      [
       135.5,
       34.2
      ],
      [
       135.5,
       34.9
      ],
      [
       134.7,
       34.9
      ],
      [
       134.7,
       34.2
      ]
     ]
    ]
   }
  },
  {
   "type": "Feature",
   "properties": {
    "id": "BEPPU",
    "name": "Beppu-Shimabara (Kumamoto)",
    "trench": "Inland",
    "mech": "crustal"
   },
   "geometry": {
    "type": "Polygon",
    "coordinates": [
     [
      [
       130.2,
       32.4
      ],
      [
       131.8,
       32.4
      ],
      [
       131.8,
       33.4
      ],
      [
       130.2,
       33.4
      ],
      [
       130.2,
       32.4
      ]
     ]
    ]
   }
  }
 ]
}